BEIJING 1               
1 28890U 05043A   26115.84827628  .00000367  00000+0  80250-4 0  9993
2 28890  98.2823 248.7929 0015920  85.6685 274.6336 14.63500142 92993
HUANJING 1A (HJ-1A)     
1 33320U 08041A   26115.90780487  .00000821  00000+0  10494-3 0  9993
2 33320  97.6672 103.7792 0017988 314.1391  45.8344 14.83862299950659
HUANJING 1B (HJ-1B)     
1 33321U 08041B   26115.85382770  .00000850  00000+0  10922-3 0  9999
2 33321  97.6515 107.0549 0036493 357.8058   2.2991 14.83218237950651
YAOGAN-4                
1 33446U 08061A   26115.81396713  .00000984  00000+0  12724-3 0  9997
2 33446  97.9287  49.7216 0012975 238.6870 121.3074 14.83099685937900
DEIMOS-1                
1 35681U 09041A   26115.75508953  .00000811  00000+0  12712-3 0  9999
2 35681  97.7346 275.2736 0002059  46.8269 313.3112 14.75181364899150
UK-DMC 2                
1 35683U 09041C   26115.82222935  .00001279  00000+0  19324-3 0  9997
2 35683  97.8749 252.0951 0001757  88.7170 271.4241 14.75945503898847
DMC3-FM1                
1 40715U 15032A   26115.80745101  .00000472  00000+0  60411-4 0  9997
2 40715  97.6537 343.0177 0004362 213.5603 146.5337 14.85679443582135
DMC3-FM2                
1 40716U 15032B   26115.82967830 -.00000169  00000+0 -13549-4 0  9990
2 40716  97.6590 344.5766 0004823 222.6345 137.4497 14.85679622582136
DMC3-FM3                
1 40717U 15032C   26115.85276745  .00000322  00000+0  43124-4 0  9993
2 40717  97.6641 346.3180 0004125 219.4145 140.6771 14.85679871582149
