[{"OBJECT_NAME":"BEIJING 1","OBJECT_ID":"2005-043A","EPOCH":"2026-04-25T20:21:31.070592","MEAN_MOTION":14.63500142,"ECCENTRICITY":0.001592,"INCLINATION":98.2823,"RA_OF_ASC_NODE":248.7929,"ARG_OF_PERICENTER":85.6685,"MEAN_ANOMALY":274.6336,"EPHEMERIS_TYPE":0,"CLASSIFICATION_TYPE":"U","NORAD_CAT_ID":28890,"ELEMENT_SET_NO":999,"REV_AT_EPOCH":9299,"BSTAR":8.025e-5,"MEAN_MOTION_DOT":3.67e-6,"MEAN_MOTION_DDOT":0},{"OBJECT_NAME":"HUANJING 1A (HJ-1A)","OBJECT_ID":"2008-041A","EPOCH":"2026-04-25T21:47:14.340768","MEAN_MOTION":14.83862299,"ECCENTRICITY":0.0017988,"INCLINATION":97.6672,"RA_OF_ASC_NODE":103.7792,"ARG_OF_PERICENTER":314.1391,"MEAN_ANOMALY":45.8344,"EPHEMERIS_TYPE":0,"CLASSIFICATION_TYPE":"U","NORAD_CAT_ID":33320,"ELEMENT_SET_NO":999,"REV_AT_EPOCH":95065,"BSTAR":0.00010494,"MEAN_MOTION_DOT":8.21e-6,"MEAN_MOTION_DDOT":0},{"OBJECT_NAME":"HUANJING 1B (HJ-1B)","OBJECT_ID":"2008-041B","EPOCH":"2026-04-25T20:29:30.713280","MEAN_MOTION":14.83218237,"ECCENTRICITY":0.0036493,"INCLINATION":97.6515,"RA_OF_ASC_NODE":107.0549,"ARG_OF_PERICENTER":357.8058,"MEAN_ANOMALY":2.2991,"EPHEMERIS_TYPE":0,"CLASSIFICATION_TYPE":"U","NORAD_CAT_ID":33321,"ELEMENT_SET_NO":999,"REV_AT_EPOCH":95065,"BSTAR":0.00010922,"MEAN_MOTION_DOT":8.5e-6,"MEAN_MOTION_DDOT":0},{"OBJECT_NAME":"YAOGAN-4","OBJECT_ID":"2008-061A","EPOCH":"2026-04-25T19:32:06.760032","MEAN_MOTION":14.83099685,"ECCENTRICITY":0.0012975,"INCLINATION":97.9287,"RA_OF_ASC_NODE":49.7216,"ARG_OF_PERICENTER":238.687,"MEAN_ANOMALY":121.3074,"EPHEMERIS_TYPE":0,"CLASSIFICATION_TYPE":"U","NORAD_CAT_ID":33446,"ELEMENT_SET_NO":999,"REV_AT_EPOCH":93790,"BSTAR":0.00012724,"MEAN_MOTION_DOT":9.84e-6,"MEAN_MOTION_DDOT":0},{"OBJECT_NAME":"DEIMOS-1","OBJECT_ID":"2009-041A","EPOCH":"2026-04-25T18:07:19.735392","MEAN_MOTION":14.75181364,"ECCENTRICITY":0.0002059,"INCLINATION":97.7346,"RA_OF_ASC_NODE":275.2736,"ARG_OF_PERICENTER":46.8269,"MEAN_ANOMALY":313.3112,"EPHEMERIS_TYPE":0,"CLASSIFICATION_TYPE":"U","NORAD_CAT_ID":35681,"ELEMENT_SET_NO":999,"REV_AT_EPOCH":89915,"BSTAR":0.00012712,"MEAN_MOTION_DOT":8.11e-6,"MEAN_MOTION_DDOT":0},{"OBJECT_NAME":"UK-DMC 2","OBJECT_ID":"2009-041C","EPOCH":"2026-04-25T19:44:00.615840","MEAN_MOTION":14.75945503,"ECCENTRICITY":0.0001757,"INCLINATION":97.8749,"RA_OF_ASC_NODE":252.0951,"ARG_OF_PERICENTER":88.717,"MEAN_ANOMALY":271.4241,"EPHEMERIS_TYPE":0,"CLASSIFICATION_TYPE":"U","NORAD_CAT_ID":35683,"ELEMENT_SET_NO":999,"REV_AT_EPOCH":89884,"BSTAR":0.00019324,"MEAN_MOTION_DOT":1.279e-5,"MEAN_MOTION_DDOT":0},{"OBJECT_NAME":"DMC3-FM1","OBJECT_ID":"2015-032A","EPOCH":"2026-04-25T19:22:43.767264","MEAN_MOTION":14.85679443,"ECCENTRICITY":0.0004362,"INCLINATION":97.6537,"RA_OF_ASC_NODE":343.0177,"ARG_OF_PERICENTER":213.5603,"MEAN_ANOMALY":146.5337,"EPHEMERIS_TYPE":0,"CLASSIFICATION_TYPE":"U","NORAD_CAT_ID":40715,"ELEMENT_SET_NO":999,"REV_AT_EPOCH":58213,"BSTAR":6.0411e-5,"MEAN_MOTION_DOT":4.72e-6,"MEAN_MOTION_DDOT":0},{"OBJECT_NAME":"DMC3-FM2","OBJECT_ID":"2015-032B","EPOCH":"2026-04-25T19:54:44.205120","MEAN_MOTION":14.85679622,"ECCENTRICITY":0.0004823,"INCLINATION":97.659,"RA_OF_ASC_NODE":344.5766,"ARG_OF_PERICENTER":222.6345,"MEAN_ANOMALY":137.4497,"EPHEMERIS_TYPE":0,"CLASSIFICATION_TYPE":"U","NORAD_CAT_ID":40716,"ELEMENT_SET_NO":999,"REV_AT_EPOCH":58213,"BSTAR":-1.3549e-5,"MEAN_MOTION_DOT":-1.69e-6,"MEAN_MOTION_DDOT":0},{"OBJECT_NAME":"DMC3-FM3","OBJECT_ID":"2015-032C","EPOCH":"2026-04-25T20:27:59.107680","MEAN_MOTION":14.85679871,"ECCENTRICITY":0.0004125,"INCLINATION":97.6641,"RA_OF_ASC_NODE":346.318,"ARG_OF_PERICENTER":219.4145,"MEAN_ANOMALY":140.6771,"EPHEMERIS_TYPE":0,"CLASSIFICATION_TYPE":"U","NORAD_CAT_ID":40717,"ELEMENT_SET_NO":999,"REV_AT_EPOCH":58214,"BSTAR":4.3124e-5,"MEAN_MOTION_DOT":3.22e-6,"MEAN_MOTION_DDOT":0}]
